GPS BIIR-4  (PRN 20)    
1 26360U 00025A   21003.48110029 -.00000006  00000-0  00000+0 0  9991
2 26360  53.6574 100.8501 0058029 163.3234 257.9451  2.00563905151336
GPS BIIR-5  (PRN 28)    
1 26407U 00040A   21002.89040976 -.00000017  00000-0  00000-0 0  9990
2 26407  55.8457 294.2943 0183840 281.8584  33.9960  2.00564318150003
GPS BIIR-8  (PRN 16)    
1 27663U 03005A   21003.51047012 -.00000020  00000-0  00000+0 0  9990
2 27663  55.8987 294.0632 0118535  35.6932 132.8519  2.00569024131377
GPS BIIR-9  (PRN 21)    
1 27704U 03010A   21002.50495087 -.00000050  00000-0  00000+0 0  9992
2 27704  54.7573  44.8781 0243500 290.0163  88.0673  2.00556114130156
GPS BIIR-10 (PRN 22)    
1 28129U 03058A   21002.56642341 -.00000002  00000-0  00000-0 0  9997
2 28129  53.4665 103.5657 0070336 298.4780  60.8294  2.00567027124844
GPS BIIR-11 (PRN 19)    
1 28190U 04009A   21002.80397787 -.00000052  00000-0  00000-0 0  9995
2 28190  56.2368 354.9276 0087408 101.4389  71.1382  2.00571300123007
GPS BIIR-13 (PRN 02)    
1 28474U 04045A   21002.92843123 -.00000051  00000-0  00000-0 0  9992
2 28474  55.0963  44.8034 0205164 270.2916 267.7219  2.00573892118496
GPS BIIRM-1 (PRN 17)    
1 28874U 05038A   21002.78787972 -.00000051  00000-0  00000-0 0  9992
2 28874  56.3288 352.3314 0138372 268.6639 271.8602  2.00581523111890
GPS BIIRM-2 (PRN 31)    
1 29486U 06042A   21002.39459691  .00000070  00000-0  00000-0 0  9999
2 29486  54.8068 230.4308 0099130  11.6885 167.9453  2.00558173104475
GPS BIIRM-3 (PRN 12)    
1 29601U 06052A   21002.58959254 -.00000015  00000-0  00000-0 0  9990
2 29601  55.8913 293.0221 0079589  66.2992 294.5709  2.00574800103468
GPS BIIRM-4 (PRN 15)    
1 32260U 07047A   21001.90804203  .00000072  00000-0  00000-0 0  9990
2 32260  53.2113 162.5689 0129273  54.6041 306.5700  2.00548515 96894
GPS BIIRM-5 (PRN 29)    
1 32384U 07062A   21003.36971994 -.00000050  00000-0  00000+0 0  9994
2 32384  56.4306 353.0058 0012666 133.7188 334.1664  2.00560634 95649
GPS BIIRM-8 (PRN 05)    
1 35752U 09043A   21002.41989385  .00000004  00000-0  00000-0 0  9994
2 35752  54.7044 106.9763 0058408  49.6882  50.5663  2.00549549 83411
GPS BIIF-1  (PRN 25)    
1 36585U 10022A   21001.38426105 -.00000008  00000-0  00000-0 0  9994
2 36585  55.1660 288.9639 0094004  52.4816 125.7631  2.00561938 77621
GPS BIIF-2  (PRN 01)    
1 37753U 11036A   21001.01735461 -.00000045  00000-0  00000-0 0  9997
2 37753  56.3085  49.5091 0100351  46.1469 315.1589  2.00561837 69304
GPS BIIF-3  (PRN 24)    
1 38833U 12053A   21002.99335060  .00000073  00000-0  00000+0 0  9995
2 38833  53.6029 225.1176 0106303  40.1401 320.7159  2.00569094 60399
GPS BIIF-4  (PRN 27)    
1 39166U 13023A   21002.35833803 -.00000052  00000-0  00000-0 0  9990
2 39166  55.9810 348.9227 0086667  31.0359 329.4800  2.00563688 55930
GPS BIIF-5  (PRN 30)    
1 39533U 14008A   21001.85774962  .00000070  00000-0  00000-0 0  9995
2 39533  53.7118 230.6187 0048101 199.3472 160.5553  2.00552362 49740
GPS BIIF-6  (PRN 06)    
1 39741U 14026A   21002.13597728 -.00000045  00000-0  00000-0 0  9994
2 39741  56.2804  48.9923 0024016 292.6940  67.1215  2.00562946 48582
GPS BIIF-7  (PRN 09)    
1 40105U 14045A   21002.22680299  .00000081  00000-0  00000+0 0  9995
2 40105  54.6092 168.0118 0018032 103.8893 256.2934  2.00572866 47018
GPS BIIF-8  (PRN 03)    
1 40294U 14068A   21002.60048834  .00000008  00000-0  00000-0 0  9994
2 40294  55.4532 108.9687 0030775  47.7886 312.4778  2.00562671 45264
GPS BIIF-9  (PRN 26)    
1 40534U 15013A   20366.24190657 -.00000008  00000-0  00000-0 0  9996
2 40534  54.0768 286.7560 0054895  11.3220 348.8422  2.00556594 41835
GPS BIIF-10 (PRN 08)    
1 40730U 15033A   21002.40177067 -.00000053  00000-0  00000-0 0  9992
2 40730  55.4929 348.0011 0060321 354.9428   5.0021  2.00552292 40047
GPS BIIF-11 (PRN 10)    
1 41019U 15062A   21002.44572582  .00000007  00000-0  00000+0 0  9997
2 41019  55.4477 108.8059 0064565 211.3199 148.3004  2.00563881 37881
GPS BIIF-12 (PRN 32)    
1 41328U 16007A   21002.03994787  .00000081  00000-0  00000-0 0  9993
2 41328  54.8398 168.5573 0045305 221.1599 138.4809  2.00569397 35932
GPS BIII-1  (PRN 04)    
1 43873U 18109A   21002.78498267  .00000088  00000-0  00000-0 0  9996
2 43873  55.0213 170.8355 0010565 196.8128 237.3237  2.00571764 15177
GPS BIII-2  (PRN 18)    
1 44506U 19056A   21002.82550747 -.00000048  00000-0  00000-0 0  9996
2 44506  55.3734  50.2355 0011813 184.2953 176.8516  2.00561018 10136
GPS BIII-3  (PRN 23)    
1 45854U 20041A   21002.40800164  .00000005  00000-0  00000-0 0  9996
2 45854  55.1590 107.5058 0009292 137.2891 222.7902  2.00567889  4083
